STARLINK-2695
1 28644C 21044G   21325.12726063 -.00016137  00000-0 -10815-2 0  3257
2 28644  53.0555 327.6529 0001481  59.9084 229.4495 15.06403704    10
